[
    {
        "Altitude(m)": 702822.4074088047,
        "Argument of Periapsis(deg)": 0.009112096949301655,
        "Eccentricity": 0.0,
        "Inclination(deg)": 45.0,
        "Latitude(deg)": 6.494458967576337,
        "Longitude(deg)": -4.111638088911281,
        "Mean Anomaly(deg)": 9.226573317984666,
        "RAAN(deg)": 89.99139844683344,
        "Satellite Name": "Constellation 1 396",
        "Satellite Number": 396,
        "Semi-Major Axis(m)": 7083131.272910544,
        "Time(s)": 152
    },
    {
        "Altitude(m)": 702819.9415382319,
        "Argument of Periapsis(deg)": 0.009172044955547059,
        "Eccentricity": 0.0,
        "Inclination(deg)": 45.0,
        "Latitude(deg)": 6.537398470200894,
        "Longitude(deg)": -4.072325109597335,
        "Mean Anomaly(deg)": 9.287274458234553,
        "RAAN(deg)": 89.99134185766786,
        "Satellite Name": "Constellation 1 396",
        "Satellite Number": 396,
        "Semi-Major Axis(m)": 7083131.272910544,
        "Time(s)": 153
    },
    {
        "Altitude(m)": 702817.4962226998,
        "Argument of Periapsis(deg)": 0.009231992961792466,
        "Eccentricity": 0.0,
        "Inclination(deg)": 45.0,
        "Latitude(deg)": 6.580334204922872,
        "Longitude(deg)": -4.033004673902421,
        "Mean Anomaly(deg)": 9.347975598484465,
        "RAAN(deg)": 89.9912852685023,
        "Satellite Name": "Constellation 1 396",
        "Satellite Number": 396,
        "Semi-Major Axis(m)": 7083131.272910544,
        "Time(s)": 154
    },
    {
        "Altitude(m)": 702815.0714545227,
        "Argument of Periapsis(deg)": 0.009291940968037872,
        "Eccentricity": 0.0,
        "Inclination(deg)": 45.0,
        "Latitude(deg)": 6.623266145698839,
        "Longitude(deg)": -3.9936767322361755,
        "Mean Anomaly(deg)": 9.408676738734352,
        "RAAN(deg)": 89.99122867933673,
        "Satellite Name": "Constellation 1 396",
        "Satellite Number": 396,
        "Semi-Major Axis(m)": 7083131.272910544,
        "Time(s)": 155
    },
    {
        "Altitude(m)": 702812.6672259236,
        "Argument of Periapsis(deg)": 0.009351888974283276,
        "Eccentricity": 0.0,
        "Inclination(deg)": 45.0,
        "Latitude(deg)": 6.666194266470731,
        "Longitude(deg)": -3.9543414030888036,
        "Mean Anomaly(deg)": 9.46937787898425,
        "RAAN(deg)": 89.99117209017115,
        "Satellite Name": "Constellation 1 396",
        "Satellite Number": 396,
        "Semi-Major Axis(m)": 7083131.272910544,
        "Time(s)": 156
    },
    {
        "Altitude(m)": 702810.2835290388,
        "Argument of Periapsis(deg)": 0.00941183698052868,
        "Eccentricity": 0.0,
        "Inclination(deg)": 45.0,
        "Latitude(deg)": 6.709118541166851,
        "Longitude(deg)": -3.9149983006430324,
        "Mean Anomaly(deg)": 9.53007901923415,
        "RAAN(deg)": 89.9911155010056,
        "Satellite Name": "Constellation 1 396",
        "Satellite Number": 396,
        "Semi-Major Axis(m)": 7083131.272910544,
        "Time(s)": 157
    },
    {
        "Altitude(m)": 702807.9203559062,
        "Argument of Periapsis(deg)": 0.009471784986774088,
        "Eccentricity": 0.0,
        "Inclination(deg)": 45.0,
        "Latitude(deg)": 6.752038943700013,
        "Longitude(deg)": -3.875647543355985,
        "Mean Anomaly(deg)": 9.59078015948405,
        "RAAN(deg)": 89.99105891184001,
        "Satellite Name": "Constellation 1 396",
        "Satellite Number": 396,
        "Semi-Major Axis(m)": 7083131.272910544,
        "Time(s)": 158
    },
    {
        "Altitude(m)": 702805.5776984827,
        "Argument of Periapsis(deg)": 0.009531732993019492,
        "Eccentricity": 0.0,
        "Inclination(deg)": 45.0,
        "Latitude(deg)": 6.7949554479686345,
        "Longitude(deg)": -3.836289081571089,
        "Mean Anomaly(deg)": 9.65148129973396,
        "RAAN(deg)": 89.99100232267445,
        "Satellite Name": "Constellation 1 396",
        "Satellite Number": 396,
        "Semi-Major Axis(m)": 7083131.272910544,
        "Time(s)": 159
    },
    {
        "Altitude(m)": 702803.2555486312,
        "Argument of Periapsis(deg)": 0.009591680999264898,
        "Eccentricity": 0.0,
        "Inclination(deg)": 45.0,
        "Latitude(deg)": 6.83786802785635,
        "Longitude(deg)": -3.7969228656150222,
        "Mean Anomaly(deg)": 9.71218243998386,
        "RAAN(deg)": 89.99094573350888,
        "Satellite Name": "Constellation 1 396",
        "Satellite Number": 396,
        "Semi-Major Axis(m)": 7083131.272910544,
        "Time(s)": 160
    },
    {
        "Altitude(m)": 702800.9538981258,
        "Argument of Periapsis(deg)": 0.009651629005510304,
        "Eccentricity": 0.0,
        "Inclination(deg)": 45.0,
        "Latitude(deg)": 6.88077665723191,
        "Longitude(deg)": -3.7575488457975683,
        "Mean Anomaly(deg)": 9.772883580233758,
        "RAAN(deg)": 89.99088914434331,
        "Satellite Name": "Constellation 1 396",
        "Satellite Number": 396,
        "Semi-Major Axis(m)": 7083131.272910544,
        "Time(s)": 161
    },
    {
        "Altitude(m)": 702798.672738654,
        "Argument of Periapsis(deg)": 0.00971157701175571,
        "Eccentricity": 0.0,
        "Inclination(deg)": 45.0,
        "Latitude(deg)": 6.923681309949072,
        "Longitude(deg)": -3.718166972411485,
        "Mean Anomaly(deg)": 9.833584720483644,
        "RAAN(deg)": 89.99083255517773,
        "Satellite Name": "Constellation 1 396",
        "Satellite Number": 396,
        "Semi-Major Axis(m)": 7083131.272910544,
        "Time(s)": 162
    },
    {
        "Altitude(m)": 702796.4120618036,
        "Argument of Periapsis(deg)": 0.009771525018001118,
        "Eccentricity": 0.0,
        "Inclination(deg)": 45.0,
        "Latitude(deg)": 6.966581959846257,
        "Longitude(deg)": -3.6787773638295445,
        "Mean Anomaly(deg)": 9.894285860733545,
        "RAAN(deg)": 89.99077596601218,
        "Satellite Name": "Constellation 1 396",
        "Satellite Number": 396,
        "Semi-Major Axis(m)": 7083131.272910544,
        "Time(s)": 163
    },
    {
        "Altitude(m)": 702794.1718590844,
        "Argument of Periapsis(deg)": 0.00983147302424652,
        "Eccentricity": 0.0,
        "Inclination(deg)": 45.0,
        "Latitude(deg)": 7.009478580747589,
        "Longitude(deg)": -3.639379634116249,
        "Mean Anomaly(deg)": 9.954987000983444,
        "RAAN(deg)": 89.99071937684661,
        "Satellite Name": "Constellation 1 396",
        "Satellite Number": 396,
        "Semi-Major Axis(m)": 7083131.272910544,
        "Time(s)": 164
    },
    {
        "Altitude(m)": 702791.952121915,
        "Argument of Periapsis(deg)": 0.009891421030491928,
        "Eccentricity": 0.0,
        "Inclination(deg)": 45.0,
        "Latitude(deg)": 7.052371146461033,
        "Longitude(deg)": -3.599973901609942,
        "Mean Anomaly(deg)": 10.015688141233344,
        "RAAN(deg)": 89.99066278768103,
        "Satellite Name": "Constellation 1 396",
        "Satellite Number": 396,
        "Semi-Major Axis(m)": 7083131.272910544,
        "Time(s)": 165
    },
    {
        "Altitude(m)": 702789.7528416169,
        "Argument of Periapsis(deg)": 0.009951369036737332,
        "Eccentricity": 0.0,
        "Inclination(deg)": 45.0,
        "Latitude(deg)": 7.095259630779486,
        "Longitude(deg)": -3.5605601165344862,
        "Mean Anomaly(deg)": 10.076389281483243,
        "RAAN(deg)": 89.99060619851547,
        "Satellite Name": "Constellation 1 396",
        "Satellite Number": 396,
        "Semi-Major Axis(m)": 7083131.272910544,
        "Time(s)": 166
    },
    {
        "Altitude(m)": 702787.5740094323,
        "Argument of Periapsis(deg)": 0.010011317042982738,
        "Eccentricity": 0.0,
        "Inclination(deg)": 45.0,
        "Latitude(deg)": 7.13814400748038,
        "Longitude(deg)": -3.52113822909637,
        "Mean Anomaly(deg)": 10.137090421733141,
        "RAAN(deg)": 89.9905496093499,
        "Satellite Name": "Constellation 1 396",
        "Satellite Number": 396,
        "Semi-Major Axis(m)": 7083131.272910544,
        "Time(s)": 167
    },
    {
        "Altitude(m)": 702785.4156165046,
        "Argument of Periapsis(deg)": 0.010071265049228144,
        "Eccentricity": 0.0,
        "Inclination(deg)": 45.0,
        "Latitude(deg)": 7.181024250325625,
        "Longitude(deg)": -3.4817081894844892,
        "Mean Anomaly(deg)": 10.197791561983054,
        "RAAN(deg)": 89.99049302018432,
        "Satellite Name": "Constellation 1 396",
        "Satellite Number": 396,
        "Semi-Major Axis(m)": 7083131.272910544,
        "Time(s)": 168
    },
    {
        "Altitude(m)": 702783.2776538971,
        "Argument of Periapsis(deg)": 0.01013121305547355,
        "Eccentricity": 0.0,
        "Inclination(deg)": 45.0,
        "Latitude(deg)": 7.223900333061453,
        "Longitude(deg)": -3.442269947870092,
        "Mean Anomaly(deg)": 10.258492702232953,
        "RAAN(deg)": 89.99043643101875,
        "Satellite Name": "Constellation 1 396",
        "Satellite Number": 396,
        "Semi-Major Axis(m)": 7083131.272910544,
        "Time(s)": 169
    },
    {
        "Altitude(m)": 702781.1601125741,
        "Argument of Periapsis(deg)": 0.010191161061718957,
        "Eccentricity": 0.0,
        "Inclination(deg)": 45.0,
        "Latitude(deg)": 7.266772229418356,
        "Longitude(deg)": -3.4028234544066973,
        "Mean Anomaly(deg)": 10.319193842482852,
        "RAAN(deg)": 89.99037984185317,
        "Satellite Name": "Constellation 1 396",
        "Satellite Number": 396,
        "Semi-Major Axis(m)": 7083131.272910544,
        "Time(s)": 170
    }
]